{
  "norad_id": 52615,
  "name": "STARLINK-4011",
  "history": [
    {
      "epoch": "2026-03-28T16:28:33.839328Z",
      "apogee_km": 540.7651859438547,
      "perigee_km": 538.7617619665989,
      "latitude_deg": -7.507645288822178e-05,
      "longitude_deg": 125.59846313056649,
      "height_km": 540.7008395124376,
      "semi_major_axis_km": 6917.9004739552265,
      "eccentricity": 0.0001448,
      "inclination_deg": 53.218,
      "raan_deg": 198.8429,
      "arg_perigee_deg": 92.3863,
      "mean_anomaly_deg": 267.7294,
      "mean_motion_rev_day": 15.08833429
    },
    {
      "epoch": "2026-03-29T00:25:29.038944Z",
      "apogee_km": 540.582077715474,
      "perigee_km": 538.9466858288242,
      "latitude_deg": 5.635510760732124e-06,
      "longitude_deg": 4.553184491037661,
      "height_km": 541.0195130748274,
      "semi_major_axis_km": 6917.901381772149,
      "eccentricity": 0.0001182,
      "inclination_deg": 53.2182,
      "raan_deg": 197.354,
      "arg_perigee_deg": 116.0381,
      "mean_anomaly_deg": 244.0733,
      "mean_motion_rev_day": 15.08833132
    },
    {
      "epoch": "2026-03-30T00:16:16.135104Z",
      "apogee_km": 540.652378353122,
      "perigee_km": 538.911829906524,
      "latitude_deg": -9.710537049561972e-07,
      "longitude_deg": 1.4196086017744722,
      "height_km": 540.5638866128899,
      "semi_major_axis_km": 6917.919104129823,
      "eccentricity": 0.0001258,
      "inclination_deg": 53.2177,
      "raan_deg": 192.896,
      "arg_perigee_deg": 82.4658,
      "mean_anomaly_deg": 277.6477,
      "mean_motion_rev_day": 15.08827334
    },
    {
      "epoch": "2026-03-30T00:16:16.135968Z",
      "apogee_km": 540.6526550698864,
      "perigee_km": 538.9115531897587,
      "latitude_deg": -4.63205087125225e-06,
      "longitude_deg": 1.419602269919266,
      "height_km": 540.5638503309535,
      "semi_major_axis_km": 6917.919104129823,
      "eccentricity": 0.00012584,
      "inclination_deg": 53.2177,
      "raan_deg": 192.896,
      "arg_perigee_deg": 82.4658,
      "mean_anomaly_deg": 277.6477,
      "mean_motion_rev_day": 15.08827334
    },
    {
      "epoch": "2026-03-30T12:59:21.085728Z",
      "apogee_km": 540.6413226909881,
      "perigee_km": 538.881547687045,
      "latitude_deg": 5.6713224585099674e-05,
      "longitude_deg": 167.7474130848491,
      "height_km": 540.580082199036,
      "semi_major_axis_km": 6917.898435189017,
      "eccentricity": 0.00012719,
      "inclination_deg": 53.2174,
      "raan_deg": 190.5167,
      "arg_perigee_deg": 84.9679,
      "mean_anomaly_deg": 275.1459,
      "mean_motion_rev_day": 15.08834096
    },
    {
      "epoch": "2026-03-30T16:10:06.901536Z",
      "apogee_km": 540.6109073822054,
      "perigee_km": 538.8670492055962,
      "latitude_deg": -1.815440673008786e-06,
      "longitude_deg": 119.33029747831165,
      "height_km": 540.5094559224499,
      "semi_major_axis_km": 6917.8759782939005,
      "eccentricity": 0.00012604,
      "inclination_deg": 53.2167,
      "raan_deg": 189.9211,
      "arg_perigee_deg": 81.7369,
      "mean_anomaly_deg": 278.3766,
      "mean_motion_rev_day": 15.08841443
    },
    {
      "epoch": "2026-03-31T12:50:06.373536Z",
      "apogee_km": 540.5821014419334,
      "perigee_km": 538.7073825898469,
      "latitude_deg": -2.7063212627430675e-05,
      "longitude_deg": 164.61833601532047,
      "height_km": 540.5152530975164,
      "semi_major_axis_km": 6917.78174201589,
      "eccentricity": 0.0001355,
      "inclination_deg": 53.2159,
      "raan_deg": 186.0557,
      "arg_perigee_deg": 88.468,
      "mean_anomaly_deg": 271.6467,
      "mean_motion_rev_day": 15.08872274
    },
    {
      "epoch": "2026-04-01T12:40:54.684480Z",
      "apogee_km": 540.8636295748556,
      "perigee_km": 538.690021050942,
      "latitude_deg": 1.6358043341437056e-05,
      "longitude_deg": 161.47632265880284,
      "height_km": 540.8056857537285,
      "semi_major_axis_km": 6917.913825312899,
      "eccentricity": 0.0001571,
      "inclination_deg": 53.2157,
      "raan_deg": 181.5943,
      "arg_perigee_deg": 97.0624,
      "mean_anomaly_deg": 263.0547,
      "mean_motion_rev_day": 15.08829061
    },
    {
      "epoch": "2026-04-02T12:31:41.671776Z",
      "apogee_km": 540.4743297240293,
      "perigee_km": 539.0574048587514,
      "latitude_deg": -7.220596196223725e-06,
      "longitude_deg": 158.34288942526572,
      "height_km": 540.7211745303406,
      "semi_major_axis_km": 6917.90286729139,
      "eccentricity": 0.00010241,
      "inclination_deg": 53.2176,
      "raan_deg": 177.136,
      "arg_perigee_deg": 94.7868,
      "mean_anomaly_deg": 265.3241,
      "mean_motion_rev_day": 15.08832646
    },
    {
      "epoch": "2026-04-02T22:04:00.291648Z",
      "apogee_km": 540.5832141043838,
      "perigee_km": 538.9017543169521,
      "latitude_deg": 5.240055950503174e-05,
      "longitude_deg": 13.089818730381857,
      "height_km": 540.6607739382654,
      "semi_major_axis_km": 6917.879484210668,
      "eccentricity": 0.00012153,
      "inclination_deg": 53.2173,
      "raan_deg": 175.3522,
      "arg_perigee_deg": 91.5269,
      "mean_anomaly_deg": 268.5863,
      "mean_motion_rev_day": 15.08840296
    },
    {
      "epoch": "2026-04-03T12:22:28.397280Z",
      "apogee_km": 540.6577335879056,
      "perigee_km": 538.806926827302,
      "latitude_deg": 2.7421087130265738e-05,
      "longitude_deg": 155.20909261627105,
      "height_km": 540.7214524196265,
      "semi_major_axis_km": 6917.8693302076035,
      "eccentricity": 0.00013377,
      "inclination_deg": 53.2171,
      "raan_deg": 172.6762,
      "arg_perigee_deg": 95.7934,
      "mean_anomaly_deg": 264.3211,
      "mean_motion_rev_day": 15.08843618
    },
    {
      "epoch": "2026-04-04T05:51:43.955136Z",
      "apogee_km": 540.7414105293137,
      "perigee_km": 538.7815698870381,
      "latitude_deg": 1.6047061042875996e-05,
      "longitude_deg": -111.09233297885083,
      "height_km": 540.9149975453686,
      "semi_major_axis_km": 6917.898490208176,
      "eccentricity": 0.00014165,
      "inclination_deg": 53.2177,
      "raan_deg": 169.4078,
      "arg_perigee_deg": 105.2523,
      "mean_anomaly_deg": 254.8626,
      "mean_motion_rev_day": 15.08834078
    },
    {
      "epoch": "2026-04-05T12:04:02.987904Z",
      "apogee_km": 540.5948080867265,
      "perigee_km": 538.884432271153,
      "latitude_deg": -5.3272640091846125e-05,
      "longitude_deg": 148.9355236070685,
      "height_km": 540.7439419174714,
      "semi_major_axis_km": 6917.876620178939,
      "eccentricity": 0.00012362,
      "inclination_deg": 53.2165,
      "raan_deg": 163.7555,
      "arg_perigee_deg": 97.2903,
      "mean_anomaly_deg": 262.8229,
      "mean_motion_rev_day": 15.08841233
    },
    {
      "epoch": "2026-04-06T05:33:17.729280Z",
      "apogee_km": 540.6408223641292,
      "perigee_km": 538.8673518050446,
      "latitude_deg": -4.314858376113229e-05,
      "longitude_deg": -117.36627588470017,
      "height_km": 540.7221239676551,
      "semi_major_axis_km": 6917.891087084587,
      "eccentricity": 0.00012818,
      "inclination_deg": 53.2168,
      "raan_deg": 160.4833,
      "arg_perigee_deg": 94.6753,
      "mean_anomaly_deg": 265.4385,
      "mean_motion_rev_day": 15.088365
    },
    {
      "epoch": "2026-04-07T13:21:00.937440Z",
      "apogee_km": 540.6177056053148,
      "perigee_km": 538.9006837697934,
      "latitude_deg": 5.709618557146337e-05,
      "longitude_deg": 118.44957308018141,
      "height_km": 540.6736430677884,
      "semi_major_axis_km": 6917.896194687553,
      "eccentricity": 0.0001241,
      "inclination_deg": 53.2161,
      "raan_deg": 154.5349,
      "arg_perigee_deg": 91.2499,
      "mean_anomaly_deg": 268.8636,
      "mean_motion_rev_day": 15.08834829
    },
    {
      "epoch": "2026-04-08T13:11:47.684544Z",
      "apogee_km": 540.5920594494773,
      "perigee_km": 538.8999452671014,
      "latitude_deg": -1.9347971601069662e-05,
      "longitude_deg": 115.31490013310396,
      "height_km": 540.629337544707,
      "semi_major_axis_km": 6917.88300235829,
      "eccentricity": 0.0001223,
      "inclination_deg": 53.216,
      "raan_deg": 150.0744,
      "arg_perigee_deg": 89.1593,
      "mean_anomaly_deg": 270.9539,
      "mean_motion_rev_day": 15.08839145
    },
    {
      "epoch": "2026-04-09T09:51:48.448224Z",
      "apogee_km": 540.5651510502903,
      "perigee_km": 538.9245061958136,
      "latitude_deg": 2.4618073636094706e-05,
      "longitude_deg": 160.59748968582764,
      "height_km": 540.5869662551653,
      "semi_major_axis_km": 6917.881828623052,
      "eccentricity": 0.00011858,
      "inclination_deg": 53.2163,
      "raan_deg": 146.2089,
      "arg_perigee_deg": 86.2472,
      "mean_anomaly_deg": 273.8656,
      "mean_motion_rev_day": 15.08839529
    }
  ]
}